ONEWEB-0597             
1 54663U 22166X   26022.95046725 -.00000002  00000+0 -36841-4 0  9990
2 54663  87.9210 272.9645 0001706  76.6722 283.4602 13.21826589152358
ONEWEB-0600             
1 54664U 22166Y   26022.62958229  .00000048  00000+0  83992-4 0  9993
2 54664  87.9208 273.0195 0001633  72.6092 287.5220 13.21826191152285
ONEWEB-0601             
1 54665U 22166Z   26022.62135325  .00000030  00000+0  40116-4 0  9990
2 54665  87.9211 273.0391 0001866  73.6796 286.4543 13.21826392152478
ONEWEB-0602             
1 54666U 22166AA  26022.66166038 -.00000006  00000+0 -47178-4 0  9990
2 54666  87.9212 273.0356 0001495  66.7470 293.3822 13.21827617152323
ONEWEB-0603             
1 54667U 22166AB  26022.97019841  .00000092  00000+0  19201-3 0  9992
2 54667  87.9220 272.9161 0001695  74.8010 285.3312 13.21828293152299
ONEWEB-0604             
1 54668U 22166AC  26022.95868262  .00000082  00000+0  16770-3 0  9997
2 54668  87.9203 272.9350 0001551  78.4488 281.6820 13.21828723152258
ONEWEB-0605             
1 54669U 22166AD  26022.42223571  .00000015  00000+0  46923-5 0  9999
2 54669  87.9209 273.0691 0002203  80.2462 279.8921 13.21824549152256
ONEWEB-0606             
1 54670U 22166AE  26022.97349995  .00000101  00000+0  21252-3 0  9992
2 54670  87.9209 272.9712 0001497  83.7603 276.3702 13.21826854152383
